{"type": "FeatureCollection", "features": [ {"type": "Feature", "properties": {"norad_id": 31169, "name": "FENGYUN 1C DEB", "group": "fengyun-1c-debris", "lat": -3.532050644333082, "lon": -165.83357094193585, "alt_km": 847.5939394599282, "timestamp": "2025-12-14T05:42:18.741172+00:00", "meta": {"OBJECT_NAME": "FENGYUN 1C DEB", "OBJECT_ID": "1999-025BHX", "EPOCH": "2025-12-12T00:39:46.602144", "MEAN_MOTION": 14.26438349, "ECCENTRICITY": 0.0057466, "INCLINATION": 99.1577, "RA_OF_ASC_NODE": 12.4267, "ARG_OF_PERICENTER": 19.3517, "MEAN_ANOMALY": 340.9826, "EPHEMERIS_TYPE": 0, "CLASSIFICATION_TYPE": "U", "NORAD_CAT_ID": 31169, "ELEMENT_SET_NO": 999, "REV_AT_EPOCH": 57094, "BSTAR": 0.0031531, "MEAN_MOTION_DOT": 7.681e-05, "MEAN_MOTION_DDOT": 0}, "tle": {"line1": "1 31169U 99025BHX 25346.02762271  .00007681  00000+0  31531-2 0  9998", "line2": "2 31169  99.1577  12.4267 0057466  19.3517 340.9826 14.26438349570947"}}, "geometry": {"type": "Point", "coordinates": [-165.83357094193585, -3.532050644333082]}}, {"type": "Feature", "properties": {"norad_id": 31171, "name": "FENGYUN 1C DEB", "group": "fengyun-1c-debris", "lat": -37.09587804744277, "lon": -16.081933545424913, "alt_km": 673.2652410285473, "timestamp": "2025-12-14T05:42:18.741184+00:00", "meta": {"OBJECT_NAME": "FENGYUN 1C DEB", "OBJECT_ID": "1999-025BHZ", "EPOCH": "2025-12-12T11:04:40.787616", "MEAN_MOTION": 14.34812456, "ECCENTRICITY": 0.01542649, "INCLINATION": 98.0152, "RA_OF_ASC_NODE": 336.1521, "ARG_OF_PERICENTER": 317.4741, "MEAN_ANOMALY": 195.5844, "EPHEMERIS_TYPE": 0, "CLASSIFICATION_TYPE": "U", "NORAD_CAT_ID": 31171, "ELEMENT_SET_NO": 999, "REV_AT_EPOCH": 95826, "BSTAR": 0.0065082758, "MEAN_MOTION_DOT": 0.00021136, "MEAN_MOTION_DDOT": 0}, "tle": {"line1": "1 31171U 99025BHZ 25346.46158319  .00021136  00000+0  65083-2 0  9991", "line2": "2 31171  98.0152 336.1521 0154264 317.4741 195.5844 14.34812456958264"}}, "geometry": {"type": "Point", "coordinates": [-16.081933545424913, -37.09587804744277]}}, {"type": "Feature", "properties": {"norad_id": 31172, "name": "FENGYUN 1C DEB", "group": "fengyun-1c-debris", "lat": -20.663322399354723, "lon": 169.46388821559225, "alt_km": 742.9473059655766, "timestamp": "2025-12-14T05:42:18.741194+00:00", "meta": {"OBJECT_NAME": "FENGYUN 1C DEB", "OBJECT_ID": "1999-025BJA", "EPOCH": "2025-12-13T06:56:51.408960", "MEAN_MOTION": 14.31514594, "ECCENTRICITY": 0.0148046, "INCLINATION": 98.4249, "RA_OF_ASC_NODE": 351.7477, "ARG_OF_PERICENTER": 266.8874, "MEAN_ANOMALY": 91.5362, "EPHEMERIS_TYPE": 0, "CLASSIFICATION_TYPE": "U", "NORAD_CAT_ID": 31172, "ELEMENT_SET_NO": 999, "REV_AT_EPOCH": 97634, "BSTAR": 0.00025551028, "MEAN_MOTION_DOT": 7.19e-06, "MEAN_MOTION_DDOT": 0}, "tle": {"line1": "1 31172U 99025BJA 25347.28948390  .00000719  00000+0  25551-3 0  9990", "line2": "2 31172  98.4249 351.7477 0148046 266.8874  91.5362 14.31514594976342"}}, "geometry": {"type": "Point", "coordinates": [169.46388821559225, -20.663322399354723]}}, {"type": "Feature", "properties": {"norad_id": 31175, "name": "FENGYUN 1C DEB", "group": "fengyun-1c-debris", "lat": -76.32366396340993, "lon": 131.05058085458887, "alt_km": 707.2089235279382, "timestamp": "2025-12-14T05:42:18.741204+00:00", "meta": {"OBJECT_NAME": "FENGYUN 1C DEB", "OBJECT_ID": "1999-025BJD", "EPOCH": "2025-12-12T17:59:18.181536", "MEAN_MOTION": 14.60068253, "ECCENTRICITY": 0.00743425, "INCLINATION": 98.3983, "RA_OF_ASC_NODE": 346.9248, "ARG_OF_PERICENTER": 165.4313, "MEAN_ANOMALY": 194.9054, "EPHEMERIS_TYPE": 0, "CLASSIFICATION_TYPE": "U", "NORAD_CAT_ID": 31175, "ELEMENT_SET_NO": 999, "REV_AT_EPOCH": 65639, "BSTAR": 0.0058463227, "MEAN_MOTION_DOT": 0.00029271, "MEAN_MOTION_DDOT": 0}, "tle": {"line1": "1 31175U 99025BJD 25346.74951599  .00029271  00000+0  58463-2 0  9999", "line2": "2 31175  98.3983 346.9248 0074342 165.4313 194.9054 14.60068253656394"}}, "geometry": {"type": "Point", "coordinates": [131.05058085458887, -76.32366396340993]}}, {"type": "Feature", "properties": {"norad_id": 31177, "name": "FENGYUN 1C DEB", "group": "fengyun-1c-debris", "lat": 76.08225661404269, "lon": -136.93892053946155, "alt_km": 1161.1527722983556, "timestamp": "2025-12-14T05:42:18.741214+00:00", "meta": {"OBJECT_NAME": "FENGYUN 1C DEB", "OBJECT_ID": "1999-025BJF", "EPOCH": "2025-12-08T17:24:07.966080", "MEAN_MOTION": 13.622528, "ECCENTRICITY": 0.0310599, "INCLINATION": 98.7576, "RA_OF_ASC_NODE": 256.5653, "ARG_OF_PERICENTER": 324.298, "MEAN_ANOMALY": 91.0785, "EPHEMERIS_TYPE": 0, "CLASSIFICATION_TYPE": "U", "NORAD_CAT_ID": 31177, "ELEMENT_SET_NO": 999, "REV_AT_EPOCH": 66157, "BSTAR": 0.0076571, "MEAN_MOTION_DOT": 8.152e-05, "MEAN_MOTION_DDOT": 0}, "tle": {"line1": "1 31177U 99025BJF 25342.72509220  .00008152  00000+0  76571-2 0  9990", "line2": "2 31177  98.7576 256.5653 0310599 324.2980  91.0785 13.62252800661574"}}, "geometry": {"type": "Point", "coordinates": [-136.93892053946155, 76.08225661404269]}}, {"type": "Feature", "properties": {"norad_id": 31178, "name": "FENGYUN 1C DEB", "group": "fengyun-1c-debris", "lat": 64.32565427108582, "lon": -168.99159528043714, "alt_km": 897.8907124808511, "timestamp": "2025-12-14T05:42:18.741226+00:00", "meta": {"OBJECT_NAME": "FENGYUN 1C DEB", "OBJECT_ID": "1999-025BJG", "EPOCH": "2025-12-12T19:24:00.562176", "MEAN_MOTION": 14.22209578, "ECCENTRICITY": 0.0126012, "INCLINATION": 99.5138, "RA_OF_ASC_NODE": 349.0501, "ARG_OF_PERICENTER": 315.3865, "MEAN_ANOMALY": 43.7222, "EPHEMERIS_TYPE": 0, "CLASSIFICATION_TYPE": "U", "NORAD_CAT_ID": 31178, "ELEMENT_SET_NO": 999, "REV_AT_EPOCH": 95816, "BSTAR": 0.0030368224, "MEAN_MOTION_DOT": 7.261e-05, "MEAN_MOTION_DDOT": 0}, "tle": {"line1": "1 31178U 99025BJG 25346.80833984  .00007261  00000+0  30368-2 0  9995", "line2": "2 31178  99.5138 349.0501 0126012 315.3865  43.7222 14.22209578958161"}}, "geometry": {"type": "Point", "coordinates": [-168.99159528043714, 64.32565427108582]}}, {"type": "Feature", "properties": {"norad_id": 31179, "name": "FENGYUN 1C DEB", "group": "fengyun-1c-debris", "lat": 19.03601193435832, "lon": -168.73511447896797, "alt_km": 1072.9070741326323, "timestamp": "2025-12-14T05:42:18.741238+00:00", "meta": {"OBJECT_NAME": "FENGYUN 1C DEB", "OBJECT_ID": "1999-025BJH", "EPOCH": "2025-12-12T18:26:10.438368", "MEAN_MOTION": 13.91924415, "ECCENTRICITY": 0.02155249, "INCLINATION": 99.02, "RA_OF_ASC_NODE": 6.6928, "ARG_OF_PERICENTER": 0.697, "MEAN_ANOMALY": 359.4451, "EPHEMERIS_TYPE": 0, "CLASSIFICATION_TYPE": "U", "NORAD_CAT_ID": 31179, "ELEMENT_SET_NO": 999, "REV_AT_EPOCH": 61941, "BSTAR": 0.0016054364, "MEAN_MOTION_DOT": 2.431e-05, "MEAN_MOTION_DDOT": 0}, "tle": {"line1": "1 31179U 99025BJH 25346.76817637  .00002431  00000+0  16054-2 0  9998", "line2": "2 31179  99.0200   6.6928 0215524   0.6970 359.4451 13.91924415619416"}}, "geometry": {"type": "Point", "coordinates": [-168.73511447896797, 19.03601193435832]}}, {"type": "Feature", "properties": {"norad_id": 31180, "name": "FENGYUN 1C DEB", "group": "fengyun-1c-debris", "lat": 21.19941336918342, "lon": -56.66779561286711, "alt_km": 1058.796000915413, "timestamp": "2025-12-14T05:42:18.741248+00:00", "meta": {"OBJECT_NAME": "FENGYUN 1C DEB", "OBJECT_ID": "1999-025BJJ", "EPOCH": "2025-12-13T08:05:25.156608", "MEAN_MOTION": 13.70343855, "ECCENTRICITY": 0.04982305, "INCLINATION": 99.2175, "RA_OF_ASC_NODE": 118.8542, "ARG_OF_PERICENTER": 58.455, "MEAN_ANOMALY": 333.7181, "EPHEMERIS_TYPE": 0, "CLASSIFICATION_TYPE": "U", "NORAD_CAT_ID": 31180, "ELEMENT_SET_NO": 999, "REV_AT_EPOCH": 64075, "BSTAR": 0.00032557541, "MEAN_MOTION_DOT": 6.53e-06, "MEAN_MOTION_DDOT": 0}, "tle": {"line1": "1 31180U 99025BJJ 25347.33709672  .00000653  00000+0  32558-3 0  9995", "line2": "2 31180  99.2175 118.8542 0498230  58.4550 333.7181 13.70343855640757"}}, "geometry": {"type": "Point", "coordinates": [-56.66779561286711, 21.19941336918342]}}, {"type": "Feature", "properties": {"norad_id": 31181, "name": "FENGYUN 1C DEB", "group": "fengyun-1c-debris", "lat": -79.52376037985199, "lon": 144.0812728424724, "alt_km": 893.7766479916454, "timestamp": "2025-12-14T05:42:18.741258+00:00", "meta": {"OBJECT_NAME": "FENGYUN 1C DEB", "OBJECT_ID": "1999-025BJK", "EPOCH": "2025-12-13T01:23:05.265312", "MEAN_MOTION": 14.11887336, "ECCENTRICITY": 0.00478384, "INCLINATION": 98.7776, "RA_OF_ASC_NODE": 19.6019, "ARG_OF_PERICENTER": 73.5587, "MEAN_ANOMALY": 316.3802, "EPHEMERIS_TYPE": 0, "CLASSIFICATION_TYPE": "U", "NORAD_CAT_ID": 31181, "ELEMENT_SET_NO": 999, "REV_AT_EPOCH": 95772, "BSTAR": 0.0012695018, "MEAN_MOTION_DOT": 2.301e-05, "MEAN_MOTION_DDOT": 0}, "tle": {"line1": "1 31181U 99025BJK 25347.05769983  .00002301  00000+0  12695-2 0  9997", "line2": "2 31181  98.7776  19.6019 0047838  73.5587 316.3802 14.11887336957726"}}, "geometry": {"type": "Point", "coordinates": [144.0812728424724, -79.52376037985199]}}, {"type": "Feature", "properties": {"norad_id": 31182, "name": "FENGYUN 1C DEB", "group": "fengyun-1c-debris", "lat": 69.16420161720447, "lon": -46.59863454277081, "alt_km": 828.9842588741494, "timestamp": "2025-12-14T05:42:18.741271+00:00", "meta": {"OBJECT_NAME": "FENGYUN 1C DEB", "OBJECT_ID": "1999-025BJL", "EPOCH": "2025-12-09T05:08:12.053760", "MEAN_MOTION": 14.14545929, "ECCENTRICITY": 0.0023077, "INCLINATION": 98.6814, "RA_OF_ASC_NODE": 332.187, "ARG_OF_PERICENTER": 146.444, "MEAN_ANOMALY": 276.6011, "EPHEMERIS_TYPE": 0, "CLASSIFICATION_TYPE": "U", "NORAD_CAT_ID": 31182, "ELEMENT_SET_NO": 999, "REV_AT_EPOCH": 96031, "BSTAR": 0.00059768, "MEAN_MOTION_DOT": 1.107e-05, "MEAN_MOTION_DDOT": 0}, "tle": {"line1": "1 31182U 99025BJL 25343.21402840  .00001107  00000+0  59768-3 0  9994", "line2": "2 31182  98.6814 332.1870 0023077 146.4440 276.6011 14.14545929960315"}}, "geometry": {"type": "Point", "coordinates": [-46.59863454277081, 69.16420161720447]}}]}